CTC2_L_00363001-01
1 27466U 22820WT  26070.40847222  .00000000  00000+0  00000-0 0  9992
2 27466  95.0000   0.0000 0000000   0.0000   0.0000 13.29142335    15
CTC2_L_00363001-02
1 27467U 24030V   26070.40847222  .00000000  00000+0  00000-0 0  9998
2 27467  95.0000   0.0000 0000000   0.0000  90.0000 13.29142335    15
CTC2_L_00363001-03
1 27468U 23790BZ  26070.40847222  .00000000  00000+0  00000-0 0  9991
2 27468  95.0000   0.0000 0000000   0.0000 180.0000 13.29142335    16
CTC2_L_00363001-04
1 27469U 22727LA  26070.40847222  .00000000  00000+0  00000-0 0  9991
2 27469  95.0000   0.0000 0000000   0.0000 270.0000 13.29142335    17
CTC2_L_00363002-01
1 27470U 25269LY  26070.40847222  .00000000  00000+0  00000-0 0  9997
2 27470  95.0000  12.0000 0000000   0.0000  12.0000 13.29142335    16
CTC2_L_00363002-02
1 27471U 23362DX  26070.40847222  .00000000  00000+0  00000-0 0  9990
2 27471  95.0000  12.0000 0000000   0.0000 102.0000 13.29142335    17
CTC2_L_00363002-03
1 27472U 22875PD  26070.40847222  .00000000  00000+0  00000-0 0  9999
2 27472  95.0000  12.0000 0000000   0.0000 192.0000 13.29142335    17
CTC2_L_00363002-04
1 27473U 23789NC  26070.40847222  .00000000  00000+0  00000-0 0  9995
2 27473  95.0000  12.0000 0000000   0.0000 282.0000 13.29142335    18
CTC2_L_00363003-01
1 27474U 25293AE  26070.40847222  .00000000  00000+0  00000-0 0  9998
2 27474  95.0000  24.0000 0000000   0.0000  24.0000 13.29142335    16
CTC2_L_00363003-02
1 27475U 23406RK  26070.40847222  .00000000  00000+0  00000-0 0  9993
2 27475  95.0000  24.0000 0000000   0.0000 114.0000 13.29142335    17
CTC2_L_00363003-03
1 27476U 26904KN  26070.40847222  .00000000  00000+0  00000-0 0  9990
2 27476  95.0000  24.0000 0000000   0.0000 204.0000 13.29142335    18
CTC2_L_00363003-04
1 27477U 23397GU  26070.40847222  .00000000  00000+0  00000-0 0  9994
2 27477  95.0000  24.0000 0000000   0.0000 294.0000 13.29142335    18
CTC2_L_00363004-01
1 27478U 22444TB  26070.40847222  .00000000  00000+0  00000-0 0  9997
2 27478  95.0000  36.0000 0000000   0.0000  36.0000 13.29142335    16
CTC2_L_00363004-02
1 27479U 26609WM  26070.40847222  .00000000  00000+0  00000-0 0  9995
2 27479  95.0000  36.0000 0000000   0.0000 126.0000 13.29142335    17
CTC2_L_00363004-03
1 27480U 24568HW  26070.40847222  .00000000  00000+0  00000-0 0  9999
2 27480  95.0000  36.0000 0000000   0.0000 216.0000 13.29142335    19
CTC2_L_00363004-04
1 27481U 26005QB  26070.40847222  .00000000  00000+0  00000-0 0  9998
2 27481  95.0000  36.0000 0000000   0.0000 306.0000 13.29142335    10
CTC2_L_00363005-01
1 27482U 24612MM  26070.40847222  .00000000  00000+0  00000-0 0  9991
2 27482  95.0000  48.0000 0000000   0.0000  48.0000 13.29142335    17
CTC2_L_00363005-02
1 27483U 22648OX  26070.40847222  .00000000  00000+0  00000-0 0  9999
2 27483  95.0000  48.0000 0000000   0.0000 138.0000 13.29142335    18
CTC2_L_00363005-03
1 27484U 25996B   26070.40847222  .00000000  00000+0  00000-0 0  9999
2 27484  95.0000  48.0000 0000000   0.0000 228.0000 13.29142335    19
CTC2_L_00363005-04
1 27485U 23882TZ  26070.40847222  .00000000  00000+0  00000-0 0  9992
2 27485  95.0000  48.0000 0000000   0.0000 318.0000 13.29142335    10
CTC2_L_00363006-01
1 27486U 23409JQ  26070.40847222  .00000000  00000+0  00000-0 0  9998
2 27486  95.0000  60.0000 0000000   0.0000  60.0000 13.29142335    19
CTC2_L_00363006-02
1 27487U 24860QK  26070.40847222  .00000000  00000+0  00000-0 0  9991
2 27487  95.0000  60.0000 0000000   0.0000 150.0000 13.29142335    10
CTC2_L_00363006-03
1 27488U 22455GD  26070.40847222  .00000000  00000+0  00000-0 0  9990
2 27488  95.0000  60.0000 0000000   0.0000 240.0000 13.29142335    11
CTC2_L_00363006-04
1 27489U 23361LG  26070.40847222  .00000000  00000+0  00000-0 0  9998
2 27489  95.0000  60.0000 0000000   0.0000 330.0000 13.29142335    12
CTC2_L_00363007-01
1 27490U 26128ZM  26070.40847222  .00000000  00000+0  00000-0 0  9994
2 27490  95.0000  72.0000 0000000   0.0000  72.0000 13.29142335    10
CTC2_L_00363007-02
1 27491U 23393ZU  26070.40847222  .00000000  00000+0  00000-0 0  9996
2 27491  95.0000  72.0000 0000000   0.0000 162.0000 13.29142335    11
CTC2_L_00363007-03
1 27492U 25893QQ  26070.40847222  .00000000  00000+0  00000-0 0  9994
2 27492  95.0000  72.0000 0000000   0.0000 252.0000 13.29142335    12
CTC2_L_00363007-04
1 27493U 22707MQ  26070.40847222  .00000000  00000+0  00000-0 0  9996
2 27493  95.0000  72.0000 0000000   0.0000 342.0000 13.29142335    13
CTC2_L_00363008-01
1 27494U 25481FF  26070.40847222  .00000000  00000+0  00000-0 0  9999
2 27494  95.0000  84.0000 0000000   0.0000  84.0000 13.29142335    10
CTC2_L_00363008-02
1 27495U 26595JG  26070.40847222  .00000000  00000+0  00000-0 0  9997
2 27495  95.0000  84.0000 0000000   0.0000 174.0000 13.29142335    11
CTC2_L_00363008-03
1 27496U 25793KP  26070.40847222  .00000000  00000+0  00000-0 0  9997
2 27496  95.0000  84.0000 0000000   0.0000 264.0000 13.29142335    12
CTC2_L_00363008-04
1 27497U 23237UJ  26070.40847222  .00000000  00000+0  00000-0 0  9999
2 27497  95.0000  84.0000 0000000   0.0000 354.0000 13.29142335    13
CTC2_L_00363009-01
1 27498U 24933RI  26070.40847222  .00000000  00000+0  00000-0 0  9994
2 27498  95.0000  96.0000 0000000   0.0000  96.0000 13.29142335    10
CTC2_L_00363009-02
1 27499U 26009JZ  26070.40847222  .00000000  00000+0  00000-0 0  9991
2 27499  95.0000  96.0000 0000000   0.0000 186.0000 13.29142335    11
CTC2_L_00363009-03
1 27500U 26963CW  26070.40847222  .00000000  00000+0  00000-0 0  9993
2 27500  95.0000  96.0000 0000000   0.0000 276.0000 13.29142335    14
CTC2_L_00363009-04
1 27501U 22726BV  26070.40847222  .00000000  00000+0  00000-0 0  9997
2 27501  95.0000  96.0000 0000000   0.0000   6.0000 13.29142335    16
CTC2_L_00363010-01
1 27502U 22408VB  26070.40847222  .00000000  00000+0  00000-0 0  9995
2 27502  95.0000 108.0000 0000000   0.0000 108.0000 13.29142335    14
CTC2_L_00363010-02
1 27503U 23521NW  26070.40847222  .00000000  00000+0  00000-0 0  9993
2 27503  95.0000 108.0000 0000000   0.0000 198.0000 13.29142335    14
CTC2_L_00363010-03
1 27504U 26411MW  26070.40847222  .00000000  00000+0  00000-0 0  9995
2 27504  95.0000 108.0000 0000000   0.0000 288.0000 13.29142335    15
CTC2_L_00363010-04
1 27505U 23965PO  26070.40847222  .00000000  00000+0  00000-0 0  9997
2 27505  95.0000 108.0000 0000000   0.0000  18.0000 13.29142335    17
CTC2_L_00363011-01
1 27506U 23940AR  26070.40847222  .00000000  00000+0  00000-0 0  9991
2 27506  95.0000 120.0000 0000000   0.0000 120.0000 13.29142335    16
CTC2_L_00363011-02
1 27507U 23884DY  26070.40847222  .00000000  00000+0  00000-0 0  9999
2 27507  95.0000 120.0000 0000000   0.0000 210.0000 13.29142335    17
CTC2_L_00363011-03
1 27508U 22828OU  26070.40847222  .00000000  00000+0  00000-0 0  9997
2 27508  95.0000 120.0000 0000000   0.0000 300.0000 13.29142335    18
CTC2_L_00363011-04
1 27509U 24923AV  26070.40847222  .00000000  00000+0  00000-0 0  9996
2 27509  95.0000 120.0000 0000000   0.0000  30.0000 13.29142335    19
CTC2_L_00363012-01
1 27510U 24661MY  26070.40847222  .00000000  00000+0  00000-0 0  9997
2 27510  95.0000 132.0000 0000000   0.0000 132.0000 13.29142335    17
CTC2_L_00363012-02
1 27511U 24083OO  26070.40847222  .00000000  00000+0  00000-0 0  9996
2 27511  95.0000 132.0000 0000000   0.0000 222.0000 13.29142335    18
CTC2_L_00363012-03
1 27512U 24624LF  26070.40847222  .00000000  00000+0  00000-0 0  9998
2 27512  95.0000 132.0000 0000000   0.0000 312.0000 13.29142335    19
CTC2_L_00363012-04
1 27513U 25619SV  26070.40847222  .00000000  00000+0  00000-0 0  9994
2 27513  95.0000 132.0000 0000000   0.0000  42.0000 13.29142335    10
CTC2_L_00363013-01
1 27514U 23510OC  26070.40847222  .00000000  00000+0  00000-0 0  9993
2 27514  95.0000 144.0000 0000000   0.0000 144.0000 13.29142335    17
CTC2_L_00363013-02
1 27515U 22725SO  26070.40847222  .00000000  00000+0  00000-0 0  9991
2 27515  95.0000 144.0000 0000000   0.0000 234.0000 13.29142335    18
CTC2_L_00363013-03
1 27516U 22968NQ  26070.40847222  .00000000  00000+0  00000-0 0  9991
2 27516  95.0000 144.0000 0000000   0.0000 324.0000 13.29142335    19
CTC2_L_00363013-04
1 27517U 22794UB  26070.40847222  .00000000  00000+0  00000-0 0  9999
2 27517  95.0000 144.0000 0000000   0.0000  54.0000 13.29142335    10
CTC2_L_00363014-01
1 27518U 26431LQ  26070.40847222  .00000000  00000+0  00000-0 0  9992
2 27518  95.0000 156.0000 0000000   0.0000 156.0000 13.29142335    17
CTC2_L_00363014-02
1 27519U 24631ZH  26070.40847222  .00000000  00000+0  00000-0 0  9993
2 27519  95.0000 156.0000 0000000   0.0000 246.0000 13.29142335    18
CTC2_L_00363014-03
1 27520U 24393PG  26070.40847222  .00000000  00000+0  00000-0 0  9990
2 27520  95.0000 156.0000 0000000   0.0000 336.0000 13.29142335    10
CTC2_L_00363014-04
1 27521U 22328OK  26070.40847222  .00000000  00000+0  00000-0 0  9997
2 27521  95.0000 156.0000 0000000   0.0000  66.0000 13.29142335    11
CTC2_L_00363015-01
1 27522U 23016QW  26070.40847222  .00000000  00000+0  00000-0 0  9993
2 27522  95.0000 168.0000 0000000   0.0000 168.0000 13.29142335    18
CTC2_L_00363015-02
1 27523U 25973UA  26070.40847222  .00000000  00000+0  00000-0 0  9998
2 27523  95.0000 168.0000 0000000   0.0000 258.0000 13.29142335    19
CTC2_L_00363015-03
1 27524U 23217LF  26070.40847222  .00000000  00000+0  00000-0 0  9998
2 27524  95.0000 168.0000 0000000   0.0000 348.0000 13.29142335    10
CTC2_L_00363015-04
1 27525U 22022PY  26070.40847222  .00000000  00000+0  00000-0 0  9992
2 27525  95.0000 168.0000 0000000   0.0000  78.0000 13.29142335    11
CTC2_L_00363016-01
1 27526U 25984GR  26070.40847222  .00000000  00000+0  00000-0 0  9993
2 27526  95.0000 180.0000 0000000   0.0000 180.0000 13.29142335    10
CTC2_L_00363016-02
1 27527U 25472VV  26070.40847222  .00000000  00000+0  00000-0 0  9996
2 27527  95.0000 180.0000 0000000   0.0000 270.0000 13.29142335    11
